[{"OBJECT_NAME":"STARLINK-5912","OBJECT_ID":"2023-042AL","EPOCH":"2026-03-09T22:00:01.999584","MEAN_MOTION":15.06548155,"ECCENTRICITY":0.00020231,"INCLINATION":43.0008,"RA_OF_ASC_NODE":42.0403,"ARG_OF_PERICENTER":243.2496,"MEAN_ANOMALY":74.6904,"EPHEMERIS_TYPE":0,"CLASSIFICATION_TYPE":"U","NORAD_CAT_ID":56020,"ELEMENT_SET_NO":999,"REV_AT_EPOCH":572,"BSTAR":0.0041131287,"MEAN_MOTION_DOT":0.00062206,"MEAN_MOTION_DDOT":0},{"OBJECT_NAME":"LEMUR-2-SIERRINI","OBJECT_ID":"2024-149DR","EPOCH":"2026-03-09T19:24:50.445216","MEAN_MOTION":15.08682764,"ECCENTRICITY":0.00065795,"INCLINATION":97.6873,"RA_OF_ASC_NODE":151.1225,"ARG_OF_PERICENTER":147.8458,"MEAN_ANOMALY":212.3173,"EPHEMERIS_TYPE":0,"CLASSIFICATION_TYPE":"U","NORAD_CAT_ID":60579,"ELEMENT_SET_NO":999,"REV_AT_EPOCH":8546,"BSTAR":0.00092040134,"MEAN_MOTION_DOT":0.00014386,"MEAN_MOTION_DDOT":0}]
